[{"OBJECT_NAME":"STARLINK-3270","OBJECT_ID":"2021-125AV","EPOCH":"2026-03-09T17:25:03.092736","MEAN_MOTION":15.08836858,"ECCENTRICITY":0.0001287,"INCLINATION":53.2165,"RA_OF_ASC_NODE":238.9602,"ARG_OF_PERICENTER":77.3274,"MEAN_ANOMALY":282.7862,"EPHEMERIS_TYPE":0,"CLASSIFICATION_TYPE":"U","NORAD_CAT_ID":50199,"ELEMENT_SET_NO":999,"REV_AT_EPOCH":23673,"BSTAR":3.5514258e-5,"MEAN_MOTION_DOT":2.77e-6,"MEAN_MOTION_DDOT":0},{"OBJECT_NAME":"OBJECT A","OBJECT_ID":"2022-023A","EPOCH":"2026-03-07T09:13:29.633664","MEAN_MOTION":15.18202647,"ECCENTRICITY":0.00985337,"INCLINATION":63.4765,"RA_OF_ASC_NODE":256.024,"ARG_OF_PERICENTER":341.4326,"MEAN_ANOMALY":18.3199,"EPHEMERIS_TYPE":0,"CLASSIFICATION_TYPE":"U","NORAD_CAT_ID":51946,"ELEMENT_SET_NO":999,"REV_AT_EPOCH":22226,"BSTAR":0.00019500419,"MEAN_MOTION_DOT":4.303e-5,"MEAN_MOTION_DDOT":0}]
