STARLINK-3270           
1 50199U 21125AV  26068.72573023  .00000277  00000+0  35514-4 0  9993
2 50199  53.2165 238.9602 0001287  77.3274 282.7862 15.08836858236734
2022-023A               
1 51946U 22023A   26066.38437076  .00004303  00000+0  19500-3 0  9999
2 51946  63.4765 256.0240 0098533 341.4326  18.3199 15.18202647222269
